start=new Date('2023-05-26T00:00:00.000Z').valueOf();
sats=[{"MEAN_ELEMENT_THEORY":"SGP4","MEAN_MOTION_DOT":"0.00005198","PERIAPSIS":"538.746","MEAN_MOTION_DDOT":"0.0000000000000","APOAPSIS":"540.685","ELEMENT_SET_NO":"999","PERIOD":"95.437","RA_OF_ASC_NODE":"178.8970","COUNTRY_CODE":"US","OBJECT_NAME":"STARLINK-3178","MEAN_ANOMALY":"279.0313","TLE_LINE2":"2 51467  53.2147 178.8970 0001402  81.0837 279.0313 15.08849744 73309","GP_ID":"232492211","CLASSIFICATION_TYPE":"U","INCLINATION":"53.2147","REV_AT_EPOCH":"7330","SITE":"AFETR","ARG_OF_PERICENTER":"81.0837","RCS_SIZE":"LARGE","OBJECT_TYPE":"PAYLOAD","DECAY_DATE":null,"CENTER_NAME":"EARTH","NORAD_CAT_ID":"51467","FILE":"3917083","SEMIMAJOR_AXIS":"6917.851","OBJECT_ID":"2022-010M","LAUNCH_DATE":"2022-02-03","EPOCH":"2023-05-24T12:10:20.689824","REF_FRAME":"TEME","EPHEMERIS_TYPE":"0","TIME_SYSTEM":"UTC","BSTAR":"0.00034432000000","TLE_LINE1":"1 51467U 22010M   23144.50718391  .00005198  00000-0  34432-3 0  9998","MEAN_MOTION":"15.08849744","ECCENTRICITY":"0.00014020"},{"OBJECT_TYPE":"PAYLOAD","RCS_SIZE":"LARGE","OBJECT_ID":"2022-010N","SEMIMAJOR_AXIS":"6917.898","DECAY_DATE":null,"CENTER_NAME":"EARTH","NORAD_CAT_ID":"51468","FILE":"3916549","EPOCH":"2023-05-24T07:41:27.716352","LAUNCH_DATE":"2022-02-03","TIME_SYSTEM":"UTC","TLE_LINE1":"1 51468U 22010N   23144.32045968  .00001340  00000-0  10230-3 0  9997","BSTAR":"0.00010230000000","MEAN_MOTION":"15.08834176","ECCENTRICITY":"0.00010230","REF_FRAME":"TEME","EPHEMERIS_TYPE":"0","APOAPSIS":"540.471","MEAN_ELEMENT_THEORY":"SGP4","MEAN_MOTION_DOT":"0.00001340","PERIAPSIS":"539.055","MEAN_MOTION_DDOT":"0.0000000000000","RA_OF_ASC_NODE":"179.7457","COUNTRY_CODE":"US","OBJECT_NAME":"STARLINK-3174","MEAN_ANOMALY":"259.6076","TLE_LINE2":"2 51468  53.2164 179.7457 0001023 100.5032 259.6076 15.08834176 72472","ELEMENT_SET_NO":"999","PERIOD":"95.438","CLASSIFICATION_TYPE":"U","INCLINATION":"53.2164","GP_ID":"232450577","SITE":"AFETR","REV_AT_EPOCH":"7247","ARG_OF_PERICENTER":"100.5032"},{"GP_ID":"232450828","INCLINATION":"53.2144","CLASSIFICATION_TYPE":"U","SITE":"AFETR","REV_AT_EPOCH":"7280","ARG_OF_PERICENTER":"85.7795","MEAN_MOTION_DOT":"0.00003123","MEAN_ELEMENT_THEORY":"SGP4","MEAN_MOTION_DDOT":"0.0000000000000","PERIAPSIS":"539.303","APOAPSIS":"540.181","ELEMENT_SET_NO":"999","PERIOD":"95.437","OBJECT_NAME":"STARLINK-3182","COUNTRY_CODE":"US","RA_OF_ASC_NODE":"179.0758","TLE_LINE2":"2 51469  53.2144 179.0758 0000635  85.7795 274.3270 15.08841074 72808","MEAN_ANOMALY":"274.3270","LAUNCH_DATE":"2022-02-03","EPOCH":"2023-05-24T11:12:03.110688","REF_FRAME":"TEME","EPHEMERIS_TYPE":"0","BSTAR":"0.00021420000000","TLE_LINE1":"1 51469U 22010P   23144.46670267  .00003123  00000-0  21420-3 0  9993","TIME_SYSTEM":"UTC","ECCENTRICITY":"0.00006350","MEAN_MOTION":"15.08841074","RCS_SIZE":"LARGE","OBJECT_TYPE":"PAYLOAD","NORAD_CAT_ID":"51469","DECAY_DATE":null,"CENTER_NAME":"EARTH","FILE":"3916549","OBJECT_ID":"2022-010P","SEMIMAJOR_AXIS":"6917.877"},{"EPOCH":"2023-05-24T11:14:19.275360","LAUNCH_DATE":"2022-02-03","ECCENTRICITY":"0.00060030","MEAN_MOTION":"15.29665390","TLE_LINE1":"1 51471U 22010R   23144.46827865  .00049387  00000-0  16956-2 0  9993","BSTAR":"0.00169560000000","TIME_SYSTEM":"UTC","EPHEMERIS_TYPE":"0","REF_FRAME":"TEME","OBJECT_TYPE":"PAYLOAD","RCS_SIZE":"LARGE","SEMIMAJOR_AXIS":"6854.949","OBJECT_ID":"2022-010R","FILE":"3916549","NORAD_CAT_ID":"51471","CENTER_NAME":"EARTH","DECAY_DATE":null,"INCLINATION":"53.2193","CLASSIFICATION_TYPE":"U","GP_ID":"232450084","ARG_OF_PERICENTER":"358.6385","REV_AT_EPOCH":"7304","SITE":"AFETR","APOAPSIS":"480.929","MEAN_MOTION_DDOT":"0.0000000000000","PERIAPSIS":"472.699","MEAN_MOTION_DOT":"0.00049387","MEAN_ELEMENT_THEORY":"SGP4","MEAN_ANOMALY":"1.4599","TLE_LINE2":"2 51471  53.2193 162.1899 0006003 358.6385   1.4599 15.29665390 73044","COUNTRY_CODE":"US","OBJECT_NAME":"STARLINK-3165","RA_OF_ASC_NODE":"162.1899","PERIOD":"94.138","ELEMENT_SET_NO":"999"},{"GP_ID":"232450332","CLASSIFICATION_TYPE":"U","INCLINATION":"53.2160","ARG_OF_PERICENTER":"84.3960","REV_AT_EPOCH":"7279","SITE":"AFETR","PERIAPSIS":"539.015","MEAN_MOTION_DDOT":"0.0000000000000","MEAN_ELEMENT_THEORY":"SGP4","MEAN_MOTION_DOT":"0.00001088","APOAPSIS":"540.504","PERIOD":"95.438","ELEMENT_SET_NO":"999","MEAN_ANOMALY":"275.7154","TLE_LINE2":"2 51472  53.2160 179.4579 0001076  84.3960 275.7154 15.08835387 72798","RA_OF_ASC_NODE":"179.4579","OBJECT_NAME":"STARLINK-3415","COUNTRY_CODE":"US","LAUNCH_DATE":"2022-02-03","EPOCH":"2023-05-24T09:10:10.150752","EPHEMERIS_TYPE":"0","REF_FRAME":"TEME","ECCENTRICITY":"0.00010760","MEAN_MOTION":"15.08835387","TIME_SYSTEM":"UTC","TLE_LINE1":"1 51472U 22010S   23144.38206193  .00001088  00000-0  86468-4 0  9993","BSTAR":"0.00008646800000","RCS_SIZE":"LARGE","OBJECT_TYPE":"PAYLOAD","FILE":"3916549","DECAY_DATE":null,"CENTER_NAME":"EARTH","NORAD_CAT_ID":"51472","SEMIMAJOR_AXIS":"6917.894","OBJECT_ID":"2022-010S"},{"MEAN_MOTION_DOT":"0.00000997","MEAN_ELEMENT_THEORY":"SGP4","MEAN_MOTION_DDOT":"0.0000000000000","PERIAPSIS":"539.133","APOAPSIS":"540.329","ELEMENT_SET_NO":"999","PERIOD":"95.437","COUNTRY_CODE":"US","OBJECT_NAME":"STARLINK-3528","RA_OF_ASC_NODE":"223.7950","MEAN_ANOMALY":"265.9577","TLE_LINE2":"2 51714  53.2161 223.7950 0000864  94.1514 265.9577 15.08844716 69581","GP_ID":"232516779","INCLINATION":"53.2161","CLASSIFICATION_TYPE":"U","SITE":"AFETR","REV_AT_EPOCH":"6958","ARG_OF_PERICENTER":"94.1514","RCS_SIZE":"LARGE","OBJECT_TYPE":"PAYLOAD","NORAD_CAT_ID":"51714","DECAY_DATE":null,"CENTER_NAME":"EARTH","FILE":"3917122","SEMIMAJOR_AXIS":"6917.866","OBJECT_ID":"2022-016A","LAUNCH_DATE":"2022-02-21","EPOCH":"2023-05-25T15:26:28.140864","EPHEMERIS_TYPE":"0","REF_FRAME":"TEME","TLE_LINE1":"1 51714U 22016A   23145.64338126  .00000997  00000-0  80709-4 0  9990","BSTAR":"0.00008070900000","TIME_SYSTEM":"UTC","ECCENTRICITY":"0.00008640","MEAN_MOTION":"15.08844716"},{"MEAN_ELEMENT_THEORY":"SGP4","MEAN_MOTION_DOT":"0.00000576","PERIAPSIS":"539.015","MEAN_MOTION_DDOT":"0.0000000000000","APOAPSIS":"540.467","ELEMENT_SET_NO":"999","PERIOD":"95.437","RA_OF_ASC_NODE":"223.8480","OBJECT_NAME":"STARLINK-3533","COUNTRY_CODE":"US","MEAN_ANOMALY":"254.6859","TLE_LINE2":"2 51715  53.2160 223.8480 0001049 105.4249 254.6859 15.08841411 70711","GP_ID":"232517530","CLASSIFICATION_TYPE":"U","INCLINATION":"53.2160","SITE":"AFETR","REV_AT_EPOCH":"7071","ARG_OF_PERICENTER":"105.4249","RCS_SIZE":"LARGE","OBJECT_TYPE":"PAYLOAD","DECAY_DATE":null,"CENTER_NAME":"EARTH","NORAD_CAT_ID":"51715","FILE":"3917122","SEMIMAJOR_AXIS":"6917.876","OBJECT_ID":"2022-016B","LAUNCH_DATE":"2022-02-21","EPOCH":"2023-05-25T15:11:57.108768","REF_FRAME":"TEME","EPHEMERIS_TYPE":"0","TIME_SYSTEM":"UTC","TLE_LINE1":"1 51715U 22016B   23145.63329987  .00000576  00000-0  54294-4 0  9998","BSTAR":"0.00005429400000","ECCENTRICITY":"0.00010490","MEAN_MOTION":"15.08841411"},{"TLE_LINE1":"1 51716U 22016C   23144.64609934  .00002275  00000-0  16097-3 0  9998","BSTAR":"0.00016097000000","TIME_SYSTEM":"UTC","ECCENTRICITY":"0.00010870","MEAN_MOTION":"15.08845440","EPHEMERIS_TYPE":"0","REF_FRAME":"TEME","EPOCH":"2023-05-24T15:30:22.982976","LAUNCH_DATE":"2022-02-21","SEMIMAJOR_AXIS":"6917.864","OBJECT_ID":"2022-016C","NORAD_CAT_ID":"51716","DECAY_DATE":null,"CENTER_NAME":"EARTH","FILE":"3916606","OBJECT_TYPE":"PAYLOAD","RCS_SIZE":"LARGE","REV_AT_EPOCH":"7049","SITE":"AFETR","ARG_OF_PERICENTER":"88.2732","INCLINATION":"53.2163","CLASSIFICATION_TYPE":"U","GP_ID":"232455428","COUNTRY_CODE":"US","OBJECT_NAME":"STARLINK-3543","RA_OF_ASC_NODE":"228.2749","TLE_LINE2":"2 51716  53.2163 228.2749 0001087  88.2732 271.8385 15.08845440 70495","MEAN_ANOMALY":"271.8385","ELEMENT_SET_NO":"999","PERIOD":"95.437","APOAPSIS":"540.481","MEAN_MOTION_DOT":"0.00002275","MEAN_ELEMENT_THEORY":"SGP4","MEAN_MOTION_DDOT":"0.0000000000000","PERIAPSIS":"538.977"},{"TLE_LINE1":"1 51717U 22016D   23145.63602182  .00000287  00000-0  36105-4 0  9991","BSTAR":"0.00003610500000","TIME_SYSTEM":"UTC","MEAN_MOTION":"15.08842103","ECCENTRICITY":"0.00011810","REF_FRAME":"TEME","EPHEMERIS_TYPE":"0","EPOCH":"2023-05-25T15:15:52.285248","LAUNCH_DATE":"2022-02-21","SEMIMAJOR_AXIS":"6917.874","OBJECT_ID":"2022-016D","NORAD_CAT_ID":"51717","CENTER_NAME":"EARTH","DECAY_DATE":null,"FILE":"3917122","OBJECT_TYPE":"PAYLOAD","RCS_SIZE":"LARGE","REV_AT_EPOCH":"6958","SITE":"AFETR","ARG_OF_PERICENTER":"98.5582","INCLINATION":"53.2165","CLASSIFICATION_TYPE":"U","GP_ID":"232516528","OBJECT_NAME":"STARLINK-3445","COUNTRY_CODE":"US","RA_OF_ASC_NODE":"223.8266","TLE_LINE2":"2 51717  53.2165 223.8266 0001181  98.5582 261.5544 15.08842103 69589","MEAN_ANOMALY":"261.5544","ELEMENT_SET_NO":"999","PERIOD":"95.437","APOAPSIS":"540.556","MEAN_MOTION_DOT":"0.00000287","MEAN_ELEMENT_THEORY":"SGP4","MEAN_MOTION_DDOT":"0.0000000000000","PERIAPSIS":"538.922"},{"INCLINATION":"53.2171","CLASSIFICATION_TYPE":"U","GP_ID":"232451085","ARG_OF_PERICENTER":"90.1396","SITE":"AFETR","REV_AT_EPOCH":"7055","APOAPSIS":"540.449","MEAN_MOTION_DDOT":"0.0000000000000","PERIAPSIS":"539.035","MEAN_MOTION_DOT":"0.00001404","MEAN_ELEMENT_THEORY":"SGP4","MEAN_ANOMALY":"269.9714","TLE_LINE2":"2 51718  53.2171 228.3579 0001022  90.1396 269.9714 15.08840964 70552","OBJECT_NAME":"STARLINK-3546","COUNTRY_CODE":"US","RA_OF_ASC_NODE":"228.3579","PERIOD":"95.437","ELEMENT_SET_NO":"999","EPOCH":"2023-05-24T15:03:53.604864","LAUNCH_DATE":"2022-02-21","ECCENTRICITY":"0.00010220","MEAN_MOTION":"15.08840964","BSTAR":"0.00010627000000","TLE_LINE1":"1 51718U 22016E   23144.62770376  .00001404  00000-0  10627-3 0  9993","TIME_SYSTEM":"UTC","EPHEMERIS_TYPE":"0","REF_FRAME":"TEME","OBJECT_TYPE":"PAYLOAD","RCS_SIZE":"LARGE","OBJECT_ID":"2022-016E","SEMIMAJOR_AXIS":"6917.877","FILE":"3916549","NORAD_CAT_ID":"51718","CENTER_NAME":"EARTH","DECAY_DATE":null}];
